SENTINEL-6              
1 46984U 20086A   24186.56451668 -.00000049  00000+0  51964-4 0  9991
2 46984  66.0392 175.1771 0007953 270.1908  89.8196 12.80929692169059
